{
  "type": "FeatureCollection",
  "features": [
    {
      "type": "Feature",
      "properties": {
        "norad_id": 37423,
        "name": "FENGYUN 1C DEB",
        "group": "fengyun-1c-debris",
        "lat": 26.467536175078035,
        "lon": 39.093771229564574,
        "alt_km": 881.3545740832096,
        "timestamp": "2025-12-19T10:50:01.489883+00:00",
        "meta_object_name": "FENGYUN 1C DEB",
        "meta_object_id": "1999-025EGR",
        "meta_epoch": "2025-12-18T09:06:56.453184",
        "meta_mean_motion": 14.07567511,
        "meta_eccentricity": 0.00492132,
        "meta_inclination": 98.7864,
        "meta_ra_of_asc_node": 42.4679,
        "meta_arg_of_pericenter": 144.5136,
        "meta_mean_anomaly": 215.9323,
        "meta_ephemeris_type": 0,
        "meta_classification_type": "U",
        "meta_norad_cat_id": 37423,
        "meta_element_set_no": 999,
        "meta_rev_at_epoch": 63689,
        "meta_bstar": 0.00064107208,
        "meta_mean_motion_dot": 1.051e-05,
        "meta_mean_motion_ddot": 0,
        "tle_line1": "1 37423U 99025EGR 25352.37982006  .00001051  00000+0  64107-3 0  9993",
        "tle_line2": "2 37423  98.7864  42.4679 0049213 144.5136 215.9323 14.07567511636892"
      },
      "geometry": {
        "type": "Point",
        "coordinates": [
          39.093771229564574,
          26.467536175078035
        ]
      }
    },
    {
      "type": "Feature",
      "properties": {
        "norad_id": 37424,
        "name": "FENGYUN 1C DEB",
        "group": "fengyun-1c-debris",
        "lat": 33.67438291150958,
        "lon": -54.48078624213137,
        "alt_km": 896.6211345949441,
        "timestamp": "2025-12-19T10:50:01.489903+00:00",
        "meta_object_name": "FENGYUN 1C DEB",
        "meta_object_id": "1999-025EGS",
        "meta_epoch": "2025-12-18T03:38:23.573472",
        "meta_mean_motion": 14.17877456,
        "meta_eccentricity": 0.0214773,
        "meta_inclination": 97.1982,
        "meta_ra_of_asc_node": 119.6335,
        "meta_arg_of_pericenter": 266.2363,
        "meta_mean_anomaly": 91.4237,
        "meta_ephemeris_type": 0,
        "meta_classification_type": "U",
        "meta_norad_cat_id": 37424,
        "meta_element_set_no": 999,
        "meta_rev_at_epoch": 68650,
        "meta_bstar": 0.00087369687,
        "meta_mean_motion_dot": 2.206e-05,
        "meta_mean_motion_ddot": 0,
        "tle_line1": "1 37424U 99025EGS 25352.15166173  .00002206  00000+0  87370-3 0  9999",
        "tle_line2": "2 37424  97.1982 119.6335 0214773 266.2363  91.4237 14.17877456686509"
      },
      "geometry": {
        "type": "Point",
        "coordinates": [
          -54.48078624213137,
          33.67438291150958
        ]
      }
    },
    {
      "type": "Feature",
      "properties": {
        "norad_id": 37427,
        "name": "FENGYUN 1C DEB",
        "group": "fengyun-1c-debris",
        "lat": -31.73988187618468,
        "lon": 141.4127086644517,
        "alt_km": 497.25209013574204,
        "timestamp": "2025-12-19T10:50:01.489915+00:00",
        "meta_object_name": "FENGYUN 1C DEB",
        "meta_object_id": "1999-025EGV",
        "meta_epoch": "2025-12-18T02:54:56.658240",
        "meta_mean_motion": 14.9812711,
        "meta_eccentricity": 0.0187852,
        "meta_inclination": 98.6206,
        "meta_ra_of_asc_node": 134.5593,
        "meta_arg_of_pericenter": 280.0724,
        "meta_mean_anomaly": 77.9349,
        "meta_ephemeris_type": 0,
        "meta_classification_type": "U",
        "meta_norad_cat_id": 37427,
        "meta_element_set_no": 999,
        "meta_rev_at_epoch": 60403,
        "meta_bstar": 0.00035837255,
        "meta_mean_motion_dot": 6.036e-05,
        "meta_mean_motion_ddot": 0,
        "tle_line1": "1 37427U 99025EGV 25352.12148910  .00006036  00000+0  35837-3 0  9994",
        "tle_line2": "2 37427  98.6206 134.5593 0187852 280.0724  77.9349 14.98127110604036"
      },
      "geometry": {
        "type": "Point",
        "coordinates": [
          141.4127086644517,
          -31.73988187618468
        ]
      }
    },
    {
      "type": "Feature",
      "properties": {
        "norad_id": 37428,
        "name": "FENGYUN 1C DEB",
        "group": "fengyun-1c-debris",
        "lat": 70.55568751426875,
        "lon": -167.20363680029567,
        "alt_km": 728.8228824143707,
        "timestamp": "2025-12-19T10:50:01.489925+00:00",
        "meta_object_name": "FENGYUN 1C DEB",
        "meta_object_id": "1999-025EGW",
        "meta_epoch": "2025-12-14T08:18:44.705664",
        "meta_mean_motion": 14.34657068,
        "meta_eccentricity": 0.0056813,
        "meta_inclination": 97.722,
        "meta_ra_of_asc_node": 210.8336,
        "meta_arg_of_pericenter": 94.0763,
        "meta_mean_anomaly": 266.6921,
        "meta_ephemeris_type": 0,
        "meta_classification_type": "U",
        "meta_norad_cat_id": 37428,
        "meta_element_set_no": 999,
        "meta_rev_at_epoch": 63459,
        "meta_bstar": 0.0018586443,
        "meta_mean_motion_dot": 5.32e-05,
        "meta_mean_motion_ddot": 0,
        "tle_line1": "1 37428U 99025EGW 25348.34635076  .00005320  00000+0  18586-2 0  9994",
        "tle_line2": "2 37428  97.7220 210.8336 0056813  94.0763 266.6921 14.34657068634591"
      },
      "geometry": {
        "type": "Point",
        "coordinates": [
          -167.20363680029567,
          70.55568751426875
        ]
      }
    },
    {
      "type": "Feature",
      "properties": {
        "norad_id": 37430,
        "name": "FENGYUN 1C DEB",
        "group": "fengyun-1c-debris",
        "lat": 10.079448930021385,
        "lon": 66.02036176975898,
        "alt_km": 786.074670894599,
        "timestamp": "2025-12-19T10:50:01.489935+00:00",
        "meta_object_name": "FENGYUN 1C DEB",
        "meta_object_id": "1999-025EGY",
        "meta_epoch": "2025-12-05T03:58:16.719456",
        "meta_mean_motion": 14.28846273,
        "meta_eccentricity": 0.001883,
        "meta_inclination": 98.7668,
        "meta_ra_of_asc_node": 53.2332,
        "meta_arg_of_pericenter": 93.5332,
        "meta_mean_anomaly": 266.8003,
        "meta_ephemeris_type": 0,
        "meta_classification_type": "U",
        "meta_norad_cat_id": 37430,
        "meta_element_set_no": 999,
        "meta_rev_at_epoch": 61593,
        "meta_bstar": 0.0038447795,
        "meta_mean_motion_dot": 9.683e-05,
        "meta_mean_motion_ddot": 0,
        "tle_line1": "1 37430U 99025EGY 25339.16547129  .00009683  00000+0  38448-2 0  9993",
        "tle_line2": "2 37430  98.7668  53.2332 0018830  93.5332 266.8003 14.28846273615930"
      },
      "geometry": {
        "type": "Point",
        "coordinates": [
          66.02036176975898,
          10.079448930021385
        ]
      }
    },
    {
      "type": "Feature",
      "properties": {
        "norad_id": 37432,
        "name": "FENGYUN 1C DEB",
        "group": "fengyun-1c-debris",
        "lat": -44.684784416146314,
        "lon": 14.754288447694623,
        "alt_km": 632.8532936339634,
        "timestamp": "2025-12-19T10:50:01.489945+00:00",
        "meta_object_name": "FENGYUN 1C DEB",
        "meta_object_id": "1999-025EHA",
        "meta_epoch": "2025-12-18T06:57:07.635744",
        "meta_mean_motion": 14.53484478,
        "meta_eccentricity": 0.01820098,
        "meta_inclination": 98.1832,
        "meta_ra_of_asc_node": 5.4367,
        "meta_arg_of_pericenter": 270.6812,
        "meta_mean_anomaly": 87.3534,
        "meta_ephemeris_type": 0,
        "meta_classification_type": "U",
        "meta_norad_cat_id": 37432,
        "meta_element_set_no": 999,
        "meta_rev_at_epoch": 8457,
        "meta_bstar": 0.00071615853,
        "meta_mean_motion_dot": 3.664e-05,
        "meta_mean_motion_ddot": 0,
        "tle_line1": "1 37432U 99025EHA 25352.28967171  .00003664  00000+0  71616-3 0  9994",
        "tle_line2": "2 37432  98.1832   5.4367 0182009 270.6812  87.3534 14.53484478 84575"
      },
      "geometry": {
        "type": "Point",
        "coordinates": [
          14.754288447694623,
          -44.684784416146314
        ]
      }
    },
    {
      "type": "Feature",
      "properties": {
        "norad_id": 37435,
        "name": "FENGYUN 1C DEB",
        "group": "fengyun-1c-debris",
        "lat": -17.803136954188748,
        "lon": -153.16685524348276,
        "alt_km": 848.7928977919491,
        "timestamp": "2025-12-19T10:50:01.489975+00:00",
        "meta_object_name": "FENGYUN 1C DEB",
        "meta_object_id": "1999-025EHD",
        "meta_epoch": "2025-12-13T08:42:56.940192",
        "meta_mean_motion": 14.22368341,
        "meta_eccentricity": 0.00403043,
        "meta_inclination": 98.6487,
        "meta_ra_of_asc_node": 23.6617,
        "meta_arg_of_pericenter": 12.4728,
        "meta_mean_anomaly": 347.7438,
        "meta_ephemeris_type": 0,
        "meta_classification_type": "U",
        "meta_norad_cat_id": 37435,
        "meta_element_set_no": 999,
        "meta_rev_at_epoch": 88948,
        "meta_bstar": 0.0015840008,
        "meta_mean_motion_dot": 3.512e-05,
        "meta_mean_motion_ddot": 0,
        "tle_line1": "1 37435U 99025EHD 25347.36315903  .00003512  00000+0  15840-2 0  9998",
        "tle_line2": "2 37435  98.6487  23.6617 0040304  12.4728 347.7438 14.22368341889483"
      },
      "geometry": {
        "type": "Point",
        "coordinates": [
          -153.16685524348276,
          -17.803136954188748
        ]
      }
    }
  ]
}